{
  "type": "FeatureCollection",
  "features": [
    {
      "type": "Feature",
      "properties": {
        "norad_id": 30768,
        "name": "FENGYUN 1C DEB",
        "group": "fengyun-1c-debris",
        "lat": 36.07587919548535,
        "lon": -89.45391097109591,
        "alt_km": 722.3880032085017,
        "timestamp": "2025-12-20T07:33:51.091671+00:00",
        "meta_object_name": "FENGYUN 1C DEB",
        "meta_object_id": "1999-025AUE",
        "meta_epoch": "2025-12-18T23:39:18.718848",
        "meta_mean_motion": 14.47986202,
        "meta_eccentricity": 0.00246693,
        "meta_inclination": 98.6182,
        "meta_ra_of_asc_node": 82.8473,
        "meta_arg_of_pericenter": 81.7446,
        "meta_mean_anomaly": 334.7693,
        "meta_ephemeris_type": 0,
        "meta_classification_type": "U",
        "meta_norad_cat_id": 30768,
        "meta_element_set_no": 999,
        "meta_rev_at_epoch": 97961,
        "meta_bstar": 0.0015172658,
        "meta_mean_motion_dot": 5.612e-05,
        "meta_mean_motion_ddot": 0,
        "tle_line1": "1 30768U 99025AUE 25352.98563332  .00005612  00000+0  15173-2 0  9997",
        "tle_line2": "2 30768  98.6182  82.8473 0024669  81.7446 334.7693 14.47986202979619"
      },
      "geometry": {
        "type": "Point",
        "coordinates": [
          -89.45391097109591,
          36.07587919548535
        ]
      }
    },
    {
      "type": "Feature",
      "properties": {
        "norad_id": 30770,
        "name": "FENGYUN 1C DEB",
        "group": "fengyun-1c-debris",
        "lat": -46.44299846751873,
        "lon": 170.92910988917413,
        "alt_km": 839.2240937845718,
        "timestamp": "2025-12-20T07:33:51.091681+00:00",
        "meta_object_name": "FENGYUN 1C DEB",
        "meta_object_id": "1999-025AUG",
        "meta_epoch": "2025-12-19T22:18:46.861056",
        "meta_mean_motion": 14.15691856,
        "meta_eccentricity": 0.00127542,
        "meta_inclination": 98.6542,
        "meta_ra_of_asc_node": 359.7717,
        "meta_arg_of_pericenter": 263.9984,
        "meta_mean_anomaly": 159.7256,
        "meta_ephemeris_type": 0,
        "meta_classification_type": "U",
        "meta_norad_cat_id": 30770,
        "meta_element_set_no": 999,
        "meta_rev_at_epoch": 97009,
        "meta_bstar": 0.00022654003,
        "meta_mean_motion_dot": 4.02e-06,
        "meta_mean_motion_ddot": 0,
        "tle_line1": "1 30770U 99025AUG 25353.92970904  .00000402  00000+0  22654-3 0  9997",
        "tle_line2": "2 30770  98.6542 359.7717 0012754 263.9984 159.7256 14.15691856970098"
      },
      "geometry": {
        "type": "Point",
        "coordinates": [
          170.92910988917413,
          -46.44299846751873
        ]
      }
    },
    {
      "type": "Feature",
      "properties": {
        "norad_id": 30771,
        "name": "FENGYUN 1C DEB",
        "group": "fengyun-1c-debris",
        "lat": -40.644144113230546,
        "lon": -22.38855658453441,
        "alt_km": 742.1106423061256,
        "timestamp": "2025-12-20T07:33:51.091691+00:00",
        "meta_object_name": "FENGYUN 1C DEB",
        "meta_object_id": "1999-025AUH",
        "meta_epoch": "2025-12-19T21:46:17.607072",
        "meta_mean_motion": 14.43277895,
        "meta_eccentricity": 0.00225532,
        "meta_inclination": 98.9054,
        "meta_ra_of_asc_node": 329.4497,
        "meta_arg_of_pericenter": 278.6392,
        "meta_mean_anomaly": 81.2242,
        "meta_ephemeris_type": 0,
        "meta_classification_type": "U",
        "meta_norad_cat_id": 30771,
        "meta_element_set_no": 999,
        "meta_rev_at_epoch": 97167,
        "meta_bstar": 0.001599794,
        "meta_mean_motion_dot": 5.359e-05,
        "meta_mean_motion_ddot": 0,
        "tle_line1": "1 30771U 99025AUH 25353.90714823  .00005359  00000+0  15998-2 0  9990",
        "tle_line2": "2 30771  98.9054 329.4497 0022553 278.6392  81.2242 14.43277895971676"
      },
      "geometry": {
        "type": "Point",
        "coordinates": [
          -22.38855658453441,
          -40.644144113230546
        ]
      }
    },
    {
      "type": "Feature",
      "properties": {
        "norad_id": 30802,
        "name": "FENGYUN 1C DEB",
        "group": "fengyun-1c-debris",
        "lat": 25.434127725910653,
        "lon": -94.5061383929553,
        "alt_km": 791.5238339092466,
        "timestamp": "2025-12-20T07:33:51.091701+00:00",
        "meta_object_name": "FENGYUN 1C DEB",
        "meta_object_id": "1999-025AUL",
        "meta_epoch": "2025-12-19T06:00:14.229216",
        "meta_mean_motion": 14.3250634,
        "meta_eccentricity": 0.0017708,
        "meta_inclination": 98.8376,
        "meta_ra_of_asc_node": 80.1655,
        "meta_arg_of_pericenter": 21.7718,
        "meta_mean_anomaly": 43.0468,
        "meta_ephemeris_type": 0,
        "meta_classification_type": "U",
        "meta_norad_cat_id": 30802,
        "meta_element_set_no": 999,
        "meta_rev_at_epoch": 97296,
        "meta_bstar": 0.0012084,
        "meta_mean_motion_dot": 3.236e-05,
        "meta_mean_motion_ddot": 0,
        "tle_line1": "1 30802U 99025AUL 25353.25016469  .00003236  00000+0  12084-2 0  9999",
        "tle_line2": "2 30802  98.8376  80.1655 0017708  21.7718  43.0468 14.32506340972966"
      },
      "geometry": {
        "type": "Point",
        "coordinates": [
          -94.5061383929553,
          25.434127725910653
        ]
      }
    },
    {
      "type": "Feature",
      "properties": {
        "norad_id": 30803,
        "name": "FENGYUN 1C DEB",
        "group": "fengyun-1c-debris",
        "lat": -77.51757092555387,
        "lon": 160.34834594751783,
        "alt_km": 849.4044833152957,
        "timestamp": "2025-12-20T07:33:51.091711+00:00",
        "meta_object_name": "FENGYUN 1C DEB",
        "meta_object_id": "1999-025AUM",
        "meta_epoch": "2025-12-19T22:10:59.047392",
        "meta_mean_motion": 14.11277815,
        "meta_eccentricity": 0.010761,
        "meta_inclination": 99.2452,
        "meta_ra_of_asc_node": 27.3174,
        "meta_arg_of_pericenter": 181.5764,
        "meta_mean_anomaly": 253.9563,
        "meta_ephemeris_type": 0,
        "meta_classification_type": "U",
        "meta_norad_cat_id": 30803,
        "meta_element_set_no": 999,
        "meta_rev_at_epoch": 96100,
        "meta_bstar": 0.00085286993,
        "meta_mean_motion_dot": 1.58e-05,
        "meta_mean_motion_ddot": 0,
        "tle_line1": "1 30803U 99025AUM 25353.92429453  .00001580  00000+0  85287-3 0  9991",
        "tle_line2": "2 30803  99.2452  27.3174 0107610 181.5764 253.9563 14.11277815961004"
      },
      "geometry": {
        "type": "Point",
        "coordinates": [
          160.34834594751783,
          -77.51757092555387
        ]
      }
    },
    {
      "type": "Feature",
      "properties": {
        "norad_id": 30804,
        "name": "FENGYUN 1C DEB",
        "group": "fengyun-1c-debris",
        "lat": 27.72103166396722,
        "lon": 55.51201720516861,
        "alt_km": 808.2983990555276,
        "timestamp": "2025-12-20T07:33:51.091721+00:00",
        "meta_object_name": "FENGYUN 1C DEB",
        "meta_object_id": "1999-025AUN",
        "meta_epoch": "2025-12-19T03:30:23.738976",
        "meta_mean_motion": 14.54639811,
        "meta_eccentricity": 0.0185806,
        "meta_inclination": 98.8948,
        "meta_ra_of_asc_node": 58.989,
        "meta_arg_of_pericenter": 171.1332,
        "meta_mean_anomaly": 219.9354,
        "meta_ephemeris_type": 0,
        "meta_classification_type": "U",
        "meta_norad_cat_id": 30804,
        "meta_element_set_no": 999,
        "meta_rev_at_epoch": 99570,
        "meta_bstar": 0.0003724371,
        "meta_mean_motion_dot": 1.944e-05,
        "meta_mean_motion_ddot": 0,
        "tle_line1": "1 30804U 99025AUN 25353.14610809  .00001944  00000+0  37244-3 0  9997",
        "tle_line2": "2 30804  98.8948  58.9890 0185806 171.1332 219.9354 14.54639811995703"
      },
      "geometry": {
        "type": "Point",
        "coordinates": [
          55.51201720516861,
          27.72103166396722
        ]
      }
    },
    {
      "type": "Feature",
      "properties": {
        "norad_id": 30805,
        "name": "FENGYUN 1C DEB",
        "group": "fengyun-1c-debris",
        "lat": -29.003657823311492,
        "lon": -148.19946351917767,
        "alt_km": 858.8545030113646,
        "timestamp": "2025-12-20T07:33:51.091731+00:00",
        "meta_object_name": "FENGYUN 1C DEB",
        "meta_object_id": "1999-025AUP",
        "meta_epoch": "2025-12-19T01:36:21.532896",
        "meta_mean_motion": 14.02911471,
        "meta_eccentricity": 0.00703103,
        "meta_inclination": 98.82,
        "meta_ra_of_asc_node": 35.5292,
        "meta_arg_of_pericenter": 266.172,
        "meta_mean_anomaly": 122.9205,
        "meta_ephemeris_type": 0,
        "meta_classification_type": "U",
        "meta_norad_cat_id": 30805,
        "meta_element_set_no": 999,
        "meta_rev_at_epoch": 96049,
        "meta_bstar": 0.0007992,
        "meta_mean_motion_dot": 1.223e-05,
        "meta_mean_motion_ddot": 0,
        "tle_line1": "1 30805U 99025AUP 25353.06691589  .00001223  00000+0  79920-3 0  9990",
        "tle_line2": "2 30805  98.8200  35.5292 0070310 266.1720 122.9205 14.02911471960495"
      },
      "geometry": {
        "type": "Point",
        "coordinates": [
          -148.19946351917767,
          -29.003657823311492
        ]
      }
    }
  ]
}